{
  "type": "FeatureCollection",
  "features": [
    {
      "type": "Feature",
      "properties": {
        "norad_id": 64903,
        "name": "CO3D 1",
        "group": "resource",
        "lat": -35.45691637171738,
        "lon": -107.5589508222662,
        "alt_km": 512.107142470717,
        "timestamp": "2025-12-27T17:24:57.051609+00:00",
        "meta_object_name": "CO3D 1",
        "meta_object_id": "2025-156E",
        "meta_epoch": "2025-12-27T11:43:50.503872",
        "meta_mean_motion": 15.20200641,
        "meta_eccentricity": 8.9e-05,
        "meta_inclination": 97.434,
        "meta_ra_of_asc_node": 77.5431,
        "meta_arg_of_pericenter": 67.1825,
        "meta_mean_anomaly": 292.9504,
        "meta_ephemeris_type": 0,
        "meta_classification_type": "U",
        "meta_norad_cat_id": 64903,
        "meta_element_set_no": 999,
        "meta_rev_at_epoch": 2344,
        "meta_bstar": 0.00035529,
        "meta_mean_motion_dot": 7.631e-05,
        "meta_mean_motion_ddot": 0,
        "tle_line1": "1 64903U 25156E   25361.48877898  .00007631  00000+0  35529-3 0  9990",
        "tle_line2": "2 64903  97.4340  77.5431 0000890  67.1825 292.9504 15.20200641 23449"
      },
      "geometry": {
        "type": "Point",
        "coordinates": [
          -107.5589508222662,
          -35.45691637171738
        ]
      }
    },
    {
      "type": "Feature",
      "properties": {
        "norad_id": 66514,
        "name": "SENTINEL-6B",
        "group": "resource",
        "lat": 62.46729981201368,
        "lon": -170.15850513213903,
        "alt_km": 1336.7115430868516,
        "timestamp": "2025-12-27T17:24:57.051619+00:00",
        "meta_object_name": "SENTINEL-6B",
        "meta_object_id": "2025-264A",
        "meta_epoch": "2025-12-27T11:23:55.153824",
        "meta_mean_motion": 12.8092958,
        "meta_eccentricity": 0.0007928,
        "meta_inclination": 66.0403,
        "meta_ra_of_asc_node": 131.8289,
        "meta_arg_of_pericenter": 269.996,
        "meta_mean_anomaly": 90.0146,
        "meta_ephemeris_type": 0,
        "meta_classification_type": "U",
        "meta_norad_cat_id": 66514,
        "meta_element_set_no": 999,
        "meta_rev_at_epoch": 517,
        "meta_bstar": 7.1888e-05,
        "meta_mean_motion_dot": -4.4e-07,
        "meta_mean_motion_ddot": 0,
        "tle_line1": "1 66514U 25264A   25361.47494391 -.00000044  00000+0  71888-4 0  9993",
        "tle_line2": "2 66514  66.0403 131.8289 0007928 269.9960  90.0146 12.80929580  5179"
      },
      "geometry": {
        "type": "Point",
        "coordinates": [
          -170.15850513213903,
          62.46729981201368
        ]
      }
    }
  ]
}